NORAD_CAT_ID,OBJECT_NAME,OBJECT_TYPE,EPOCH,MEAN_MOTION,ECCENTRICITY,INCLINATION,RA_OF_ASC_NODE,ARG_OF_PERICENTER,MEAN_ANOMALY,BSTAR,MEAN_MOTION_DOT,MEAN_MOTION_DDOT,TLE_LINE0,TLE_LINE1,TLE_LINE2,SEMIMAJOR_AXIS,PERIOD,APOGEE,PERIGEE,DECAYED
52837.0,STARLINK-4036,PAYLOAD,2023-11-04 07:53:05,15.08855449,0.000164,53.2156,278.4742,93.5073,266.6107,0.00031641,4.753e-05,0.0,0 STARLINK-4036,1 52837U 22062H   23308.32853779  .00004753  00000-0  31641-3 0  9994,2 52837  53.2156 278.4742 0001640  93.5073 266.6107 15.08855449 76506,6917.833,95.437,540.833,538.564,0.0
52837.0,STARLINK-4036,PAYLOAD,2023-11-05 04:33:06,15.08852129,0.0001852,53.216,274.6097,102.9457,257.1742,0.00031518,4.733e-05,0.0,0 STARLINK-4036,1 52837U 22062H   23309.18965911  .00004733  00000-0  31518-3 0  9992,2 52837  53.2160 274.6097 0001852 102.9457 257.1742 15.08852129 76634,6917.843,95.437,540.99,538.427,0.0
52837.0,STARLINK-4036,PAYLOAD,2023-11-05 07:43:52,15.08857164,0.0001802,53.2165,274.0126,103.2071,256.9122,0.00037326,5.66e-05,0.0,0 STARLINK-4036,1 52837U 22062H   23309.32213593  .00005660  00000-0  37326-3 0  9993,2 52837  53.2165 274.0126 0001802 103.2071 256.9122 15.08857164 76652,6917.828,95.436,540.94,538.446,0.0
52837.0,STARLINK-4036,PAYLOAD,2023-11-06 07:34:37,15.08887179,0.0001599,53.2153,269.5526,94.3972,265.7203,0.00094797,0.00014851,0.0,0 STARLINK-4036,1 52837U 22062H   23310.31571646  .00014851  00000-0  94797-3 0  9997,2 52837  53.2153 269.5526 0001599  94.3972 265.7203 15.08887179 76809,6917.736,95.435,540.707,538.495,0.0
52837.0,STARLINK-4036,PAYLOAD,2023-11-06 13:56:11,15.0884375,0.000167,53.2164,268.3624,74.4312,285.6864,-8.4266e-05,-1.629e-05,0.0,0 STARLINK-4036,1 52837U 22062H   23310.58068885 -.00001629  00000-0 -84266-4 0  9994,2 52837  53.2164 268.3624 0001670  74.4312 285.6864 15.08843750 76849,6917.869,95.437,540.889,538.579,0.0
52837.0,STARLINK-4036,PAYLOAD,2023-11-07 04:14:40,15.08817728,0.0001199,53.2152,265.6907,91.0948,269.0181,-0.00052189,-8.579e-05,0.0,0 STARLINK-4036,1 52837U 22062H   23311.17686241 -.00008579  00000-0 -52189-3 0  9991,2 52837  53.2152 265.6907 0001199  91.0948 269.0181 15.08817728 76930,6917.948,95.439,540.643,538.984,0.0
52837.0,STARLINK-4036,PAYLOAD,2023-11-07 13:46:59,15.08823306,0.0001163,53.216,263.9041,84.8323,275.2802,-0.00023994,-4.103e-05,0.0,0 STARLINK-4036,1 52837U 22062H   23311.57430476 -.00004103  00000-0 -23994-3 0  9993,2 52837  53.2160 263.9041 0001163  84.8323 275.2802 15.08823306 76991,6917.931,95.439,540.601,538.992,0.0
52837.0,STARLINK-4036,PAYLOAD,2023-11-08 04:05:28,15.08839009,0.0001256,53.2153,261.2288,87.4544,272.6592,0.00040246,6.123e-05,0.0,0 STARLINK-4036,1 52837U 22062H   23312.17046676  .00006123  00000-0  40246-3 0  9996,2 52837  53.2153 261.2288 0001256  87.4544 272.6592 15.08839009 77089,6917.883,95.438,540.617,538.88,0.0
52837.0,STARLINK-4036,PAYLOAD,2023-11-09 05:31:38,15.08858823,0.0001074,53.215,256.4713,105.0596,255.0515,0.00065574,0.00010169,0.0,0 STARLINK-4036,1 52837U 22062H   23313.23030251  .00010169  00000-0  65574-3 0  9992,2 52837  53.2150 256.4713 0001074 105.0596 255.0515 15.08858823 77240,6917.823,95.436,540.431,538.945,0.0
52837.0,STARLINK-4036,PAYLOAD,2023-11-10 03:47:01,15.08856405,0.0001264,53.2151,252.3078,85.7706,274.3431,0.00024259,3.577e-05,0.0,0 STARLINK-4036,1 52837U 22062H   23314.15765919  .00003577  00000-0  24259-3 0  9990,2 52837  53.2151 252.3078 0001264  85.7706 274.3431 15.08856405 77388,6917.83,95.437,540.57,538.821,0.0
52837.0,STARLINK-4036,PAYLOAD,2023-11-10 13:19:20,15.08839592,0.0001292,53.2163,250.5217,99.1085,261.0053,-1.9178e-05,-5.93e-06,0.0,0 STARLINK-4036,1 52837U 22062H   23314.55510218 -.00000593  00000-0 -19178-4 0  9996,2 52837  53.2163 250.5217 0001292  99.1085 261.0053 15.08839592 77444,6917.882,95.438,540.64,538.853,0.0
52837.0,STARLINK-4036,PAYLOAD,2023-11-11 13:10:08,15.08829522,0.0001754,53.2169,246.0612,94.7766,265.3427,-0.00021592,-3.722e-05,0.0,0 STARLINK-4036,1 52837U 22062H   23315.54871314 -.00003722  00000-0 -21592-3 0  9992,2 52837  53.2169 246.0612 0001754  94.7766 265.3427 15.08829522 77599,6917.912,95.438,540.991,538.564,0.0
52837.0,STARLINK-4036,PAYLOAD,2023-11-11 22:42:27,15.08826661,0.0001624,53.217,244.2744,109.5546,250.5622,-0.00017011,-2.993e-05,0.0,0 STARLINK-4036,1 52837U 22062H   23315.94615701 -.00002993  00000-0 -17011-3 0  9992,2 52837  53.2170 244.2744 0001624 109.5546 250.5622 15.08826661 77655,6917.921,95.438,540.91,538.663,0.0
52837.0,STARLINK-4036,PAYLOAD,2023-11-12 01:53:14,15.08824597,0.0001513,53.216,243.6826,100.1007,260.0156,-0.00016861,-2.969e-05,0.0,0 STARLINK-4036,1 52837U 22062H   23316.07864142 -.00002969  00000-0 -16861-3 0  9997,2 52837  53.2160 243.6826 0001513 100.1007 260.0156 15.08824597 77670,6917.927,95.439,540.839,538.746,0.0
52837.0,STARLINK-4036,PAYLOAD,2023-11-12 14:36:19,15.08835698,0.0001362,53.2154,241.306,100.6757,259.4388,6.0817e-05,6.8e-06,0.0,0 STARLINK-4036,1 52837U 22062H   23316.60856037  .00000680  00000-0  60817-4 0  9997,2 52837  53.2154 241.3060 0001362 100.6757 259.4388 15.08835698 77759,6917.894,95.438,540.701,538.816,0.0
52837.0,STARLINK-4036,PAYLOAD,2023-11-12 22:33:15,15.08839117,0.000142,53.2152,239.8198,97.372,262.7433,0.00034282,5.172e-05,0.0,0 STARLINK-4036,1 52837U 22062H   23316.93976222  .00005172  00000-0  34282-3 0  9999,2 52837  53.2152 239.8198 0001420  97.3720 262.7433 15.08839117 77802,6917.883,95.438,540.73,538.766,0.0
52837.0,STARLINK-4036,PAYLOAD,2023-11-13 04:54:47,15.08853585,0.000152,53.2157,238.6281,106.3041,253.8118,0.00065346,0.00010131,0.0,0 STARLINK-4036,1 52837U 22062H   23317.20471973  .00010131  00000-0  65346-3 0  9999,2 52837  53.2157 238.6281 0001520 106.3041 253.8118 15.08853585 77845,6917.839,95.437,540.755,538.652,0.0
52837.0,STARLINK-4036,PAYLOAD,2023-11-14 01:34:48,15.08851951,0.0001486,53.2162,234.7601,84.6012,275.515,0.00032778,4.934e-05,0.0,0 STARLINK-4036,1 52837U 22062H   23318.06583727  .00004934  00000-0  32778-3 0  9992,2 52837  53.2162 234.7601 0001486  84.6012 275.5150 15.08851951 77977,6917.844,95.437,540.737,538.681,0.0
52837.0,STARLINK-4036,PAYLOAD,2023-11-14 20:39:25,15.0884504,0.0001357,53.216,231.1967,96.7272,263.3875,3.1472e-05,2.13e-06,0.0,0 STARLINK-4036,1 52837U 22062H   23318.86071656  .00000213  00000-0  31472-4 0  9990,2 52837  53.2160 231.1967 0001357  96.7272 263.3875 15.08845040 78095,6917.865,95.437,540.669,538.791,0.0
52837.0,STARLINK-4036,PAYLOAD,2023-11-15 03:00:58,15.08834147,0.0001717,53.2162,230.0012,97.9044,262.2143,-0.00025709,-4.377e-05,0.0,0 STARLINK-4036,1 52837U 22062H   23319.12567624 -.00004377  00000-0 -25709-3 0  9997,2 52837  53.2162 230.0012 0001717  97.9044 262.2143 15.08834147 78133,6917.898,95.438,540.951,538.575,0.0
52837.0,STARLINK-4036,PAYLOAD,2023-11-15 18:54:51,15.08809572,0.0001417,53.2156,227.0341,86.2593,273.8561,-0.000364,-6.071e-05,0.0,0 STARLINK-4036,1 52837U 22062H   23319.78809757 -.00006071  00000-0 -36400-3 0  9998,2 52837  53.2156 227.0341 0001417  86.2593 273.8561 15.08809572 78231,6917.973,95.439,540.819,538.858,0.0
52837.0,STARLINK-4036,PAYLOAD,2023-11-16 02:51:47,15.08830593,0.0001461,53.2157,225.5472,86.1681,273.9478,8.1268e-05,1.005e-05,0.0,0 STARLINK-4036,1 52837U 22062H   23320.11929619  .00001005  00000-0  81268-4 0  9990,2 52837  53.2157 225.5472 0001461  86.1681 273.9478 15.08830593 78286,6917.909,95.438,540.785,538.763,0.0
52837.0,STARLINK-4036,PAYLOAD,2023-11-17 10:39:30,15.08830044,0.000163,53.2162,219.597,88.8107,271.3072,0.00026653,3.955e-05,0.0,0 STARLINK-4036,1 52837U 22062H   23321.44410800  .00003955  00000-0  26653-3 0  9996,2 52837  53.2162 219.5970 0001630  88.8107 271.3072 15.08830044 78483,6917.911,95.438,540.903,538.648,0.0
52837.0,STARLINK-4036,PAYLOAD,2023-11-18 10:30:17,15.08847477,0.000146,53.2154,215.1383,86.9744,273.1415,0.00029479,4.408e-05,0.0,0 STARLINK-4036,1 52837U 22062H   23322.43770507  .00004408  00000-0  29479-3 0  9992,2 52837  53.2154 215.1383 0001460  86.9744 273.1415 15.08847477 78637,6917.858,95.437,540.733,538.713,0.0
52837.0,STARLINK-4036,PAYLOAD,2023-11-18 23:13:22,15.08853845,0.0001233,53.2171,212.7583,89.532,270.5813,0.00041378,6.306e-05,0.0,0 STARLINK-4036,1 52837U 22062H   23322.96761626  .00006306  00000-0  41378-3 0  9993,2 52837  53.2171 212.7583 0001233  89.5320 270.5813 15.08853845 78716,6917.838,95.437,540.556,538.85,0.0
52837.0,STARLINK-4036,PAYLOAD,2023-11-19 02:24:08,15.08859261,0.0001541,53.2161,212.1632,90.1842,269.9327,0.00049652,7.627e-05,0.0,0 STARLINK-4036,1 52837U 22062H   23323.10009337  .00007627  00000-0  49652-3 0  9994,2 52837  53.2161 212.1632 0001541  90.1842 269.9327 15.08859261 78735,6917.822,95.436,540.753,538.62,0.0
52837.0,STARLINK-4036,PAYLOAD,2023-11-19 10:21:03,15.08854704,0.0001737,53.2162,210.6767,87.341,272.7781,0.00032587,4.904e-05,0.0,0 STARLINK-4036,1 52837U 22062H   23323.43129518  .00004904  00000-0  32587-3 0  9998,2 52837  53.2162 210.6767 0001737  87.3410 272.7781 15.08854704 78782,6917.835,95.437,540.902,538.499,0.0
52837.0,STARLINK-4036,PAYLOAD,2023-11-19 23:04:08,15.08867224,0.0001615,53.2156,208.298,88.0524,272.0653,0.00038242,5.808e-05,0.0,0 STARLINK-4036,1 52837U 22062H   23323.96120457  .00005808  00000-0  38242-3 0  9997,2 52837  53.2156 208.2980 0001615  88.0524 272.0653 15.08867224 78865,6917.797,95.436,540.779,538.545,0.0
52837.0,STARLINK-4036,PAYLOAD,2023-11-20 19:44:08,15.0885603,0.000155,53.215,204.4303,89.735,270.382,0.00019441,2.809e-05,0.0,0 STARLINK-4036,1 52837U 22062H   23324.82231720  .00002809  00000-0  19441-3 0  9997,2 52837  53.2150 204.4303 0001550  89.7350 270.3820 15.08856030 78993,6917.831,95.437,540.769,538.624,0.0
52837.0,STARLINK-4036,PAYLOAD,2023-11-20 21:19:31,15.08853004,0.0001663,53.2156,204.1328,92.6054,267.5129,-3.1489e-05,-7.89e-06,0.0,0 STARLINK-4036,1 52837U 22062H   23324.88855700 -.00000789  00000-0 -31489-4 0  9997,2 52837  53.2156 204.1328 0001663  92.6054 267.5129 15.08853004 79003,6917.841,95.437,540.856,538.555,0.0
